COMMENT,ORIGINATOR,NORAD_CAT_ID,OBJECT_NAME,OBJECT_TYPE,CLASSIFICATION_TYPE,INTLDES,EPOCH,EPOCH_MICROSECONDS,MEAN_MOTION,ECCENTRICITY,INCLINATION,RA_OF_ASC_NODE,ARG_OF_PERICENTER,MEAN_ANOMALY,EPHEMERIS_TYPE,ELEMENT_SET_NO,REV_AT_EPOCH,BSTAR,MEAN_MOTION_DOT,MEAN_MOTION_DDOT,FILE,TLE_LINE0,TLE_LINE1,TLE_LINE2,OBJECT_ID,OBJECT_NUMBER,SEMIMAJOR_AXIS,PERIOD,APOGEE,PERIGEE,DECAYED,date
GENERATED VIA SPACETRACK.ORG API,18 SPCS,48896,SPACEBEE-105,PAYLOAD,U,21059T,2023/3/4 20:12,271040,15.24364335,0.0008229,97.5789,198.7458,270.0982,89.9312,0,999,9345,0.0017907,0.00044031,0,3851450,0 SPACEBEE-105,1 48896U 21059T   23063.84171610  .00044031  00000-0  17907-2 0  9992,2 48896  97.5789 198.7458 0008229 270.0982  89.9312 15.24364335 93452,2021-059T,48896,6870.832,94.466,498.351,487.043,0,
GENERATED VIA SPACETRACK.ORG API,18 SPCS,48896,SPACEBEE-105,PAYLOAD,U,21059T,2023/3/5 8:48,989472,15.24414082,0.0008124,97.5793,199.2768,267.3811,92.6496,0,999,9353,0.0018853,0.00046444,0,3851939,0 SPACEBEE-105,1 48896U 21059T   23064.36685173  .00046444  00000-0  18853-2 0  9995,2 48896  97.5793 199.2768 0008124 267.3811  92.6496 15.24414082 93539,2021-059T,48896,6870.682,94.463,498.129,486.966,0,
GENERATED VIA SPACETRACK.ORG API,18 SPCS,48896,SPACEBEE-105,PAYLOAD,U,21059T,2023/3/5 21:24,172576,15.24467472,0.0008112,97.5798,199.8083,265.428,94.603,0,999,9361,0.0019906,0.00049137,0,3852256,0 SPACEBEE-105,1 48896U 21059T   23064.89196959  .00049137  00000-0  19906-2 0  9994,2 48896  97.5798 199.8083 0008112 265.4280  94.6030 15.24467472 93612,2021-059T,48896,6870.522,94.459,497.96,486.814,0,
GENERATED VIA SPACETRACK.ORG API,18 SPCS,48896,SPACEBEE-105,PAYLOAD,U,21059T,2023/3/5 21:24,172576,15.24467472,0.0008112,97.5798,199.8083,265.428,94.603,0,999,9361,0.0019906,0.00049137,0,3852360,0 SPACEBEE-105,1 48896U 21059T   23064.89196959  .00049137  00000-0  19906-2 0  9994,2 48896  97.5798 199.8083 0008112 265.4280  94.6030 15.24467472 93612,2021-059T,48896,6870.522,94.459,497.96,486.814,0,
GENERATED VIA SPACETRACK.ORG API,18 SPCS,48896,SPACEBEE-105,PAYLOAD,U,21059T,2023/3/6 8:26,756768,15.24516624,0.0008122,97.5797,200.2733,263.8508,96.1804,0,999,9368,0.0021264,0.00052596,0,3853141,0 SPACEBEE-105,1 48896U 21059T   23065.35143237  .00052596  00000-0  21264-2 0  9990,2 48896  97.5797 200.2733 0008122 263.8508  96.1804 15.24516624 93683,2021-059T,48896,6870.374,94.456,497.819,486.659,0,
GENERATED VIA SPACETRACK.ORG API,18 SPCS,48896,SPACEBEE-105,PAYLOAD,U,21059T,2023/3/7 8:03,42848,15.24613641,0.0008164,97.5803,201.2695,260.6854,99.346,0,999,9383,0.0020951,0.00051967,0,3853641,0 SPACEBEE-105,1 48896U 21059T   23066.33594957  .00051967  00000-0  20951-2 0  9991,2 48896  97.5803 201.2695 0008164 260.6854  99.3460 15.24613641 93831,2021-059T,48896,6870.083,94.45,497.557,486.339,0,
GENERATED VIA SPACETRACK.ORG API,18 SPCS,48896,SPACEBEE-105,PAYLOAD,U,21059T,2023/3/7 14:21,385152,15.24641212,0.0008147,97.5801,201.5352,259.8023,100.2295,0,999,9387,0.0021644,0.00053745,0,3854072,0 SPACEBEE-105,1 48896U 21059T   23066.59847668  .00053745  00000-0  21644-2 0  9995,2 48896  97.5801 201.5352 0008147 259.8023 100.2295 15.24641212 93878,2021-059T,48896,6870,94.448,497.462,486.268,0,
GENERATED VIA SPACETRACK.ORG API,18 SPCS,48896,SPACEBEE-105,PAYLOAD,U,21059T,2023/3/8 7:41,814016,15.24709102,0.0008203,97.5803,202.2658,258.3246,101.7071,0,999,9398,0.0018692,0.00046454,0,3854877,0 SPACEBEE-105,1 48896U 21059T   23067.32040294  .00046454  00000-0  18692-2 0  9995,2 48896  97.5803 202.2658 0008203 258.3246 101.7071 15.24709102 93984,2021-059T,48896,6869.796,94.444,497.296,486.026,0,
GENERATED VIA SPACETRACK.ORG API,18 SPCS,48896,SPACEBEE-105,PAYLOAD,U,21059T,2023/3/8 7:41,814016,15.24709102,0.0008203,97.5803,202.2658,258.3246,101.7071,0,999,9398,0.0018692,0.00046454,0,3855077,0 SPACEBEE-105,1 48896U 21059T   23067.32040294  .00046454  00000-0  18692-2 0  9995,2 48896  97.5803 202.2658 0008203 258.3246 101.7071 15.24709102 93984,2021-059T,48896,6869.796,94.444,497.296,486.026,0,
GENERATED VIA SPACETRACK.ORG API,18 SPCS,48896,SPACEBEE-105,PAYLOAD,U,21059T,2023/3/9 8:53,844768,15.24822174,0.000774,97.5809,203.3288,250.9953,109.0446,0,999,9414,0.0021429,0.00053492,0,3855616,0 SPACEBEE-105,1 48896U 21059T   23068.37041487  .00053492  00000-0  21429-2 0  9998,2 48896  97.5809 203.3288 0007740 250.9953 109.0446 15.24822174 94140,2021-059T,48896,6869.456,94.437,496.638,486.005,0,
GENERATED VIA SPACETRACK.ORG API,18 SPCS,48896,SPACEBEE-105,PAYLOAD,U,21059T,2023/3/9 21:29,858432,15.24880585,0.000795,97.5816,203.8611,252.1872,107.8498,0,999,9422,0.0021943,0.00054885,0,3855951,0 SPACEBEE-105,1 48896U 21059T   23068.89539188  .00054885  00000-0  21943-2 0  9993,2 48896  97.5816 203.8611 0007950 252.1872 107.8498 15.24880585 94222,2021-059T,48896,6869.281,94.434,496.607,485.685,0,
GENERATED VIA SPACETRACK.ORG API,18 SPCS,48896,SPACEBEE-105,PAYLOAD,U,21059T,2023/3/10 14:48,62720,15.2495982,0.0008087,97.5813,204.592,250.8877,109.1485,0,999,9433,0.001855,0.00046445,0,3856760,0 SPACEBEE-105,1 48896U 21059T   23069.61719980  .00046445  00000-0  18550-2 0  9997,2 48896  97.5813 204.5920 0008087 250.8877 109.1485 15.24959820 94334,2021-059T,48896,6869.043,94.429,496.463,485.353,0,
GENERATED VIA SPACETRACK.ORG API,18 SPCS,48896,SPACEBEE-105,PAYLOAD,U,21059T,2023/3/10 21:06,275456,15.24987322,0.0008169,97.5811,204.8577,250.8048,109.2305,0,999,9437,0.0019397,0.00048624,0,3856975,0 SPACEBEE-105,1 48896U 21059T   23069.87966754  .00048624  00000-0  19397-2 0  9999,2 48896  97.5811 204.8577 0008169 250.8048 109.2305 15.24987322 94378,2021-059T,48896,6868.961,94.427,496.437,485.214,0,
GENERATED VIA SPACETRACK.ORG API,18 SPCS,48896,SPACEBEE-105,PAYLOAD,U,21059T,2023/3/11 14:26,498432,15.25056693,0.0008175,97.5809,205.5867,249.6247,110.4112,0,999,9448,0.0018515,0.00046493,0,3857581,0 SPACEBEE-105,1 48896U 21059T   23070.60142938  .00046493  00000-0  18515-2 0  9995,2 48896  97.5809 205.5867 0008175 249.6247 110.4112 15.25056693 94480,2021-059T,48896,6868.752,94.423,496.232,485.002,0,
GENERATED VIA SPACETRACK.ORG API,18 SPCS,48896,SPACEBEE-105,PAYLOAD,U,21059T,2023/3/11 20:43,234592,15.25083212,0.0008198,97.5807,205.8525,249.0364,110.9996,0,999,9452,0.0017021,0.00042748,0,3857972,0 SPACEBEE-105,1 48896U 21059T   23070.86388003  .00042748  00000-0  17021-2 0  9998,2 48896  97.5807 205.8525 0008198 249.0364 110.9996 15.25083212 94528,2021-059T,48896,6868.673,94.421,496.169,484.907,0,
GENERATED VIA SPACETRACK.ORG API,18 SPCS,48896,SPACEBEE-105,PAYLOAD,U,21059T,2023/3/12 7:45,904768,15.25127825,0.0008263,97.5806,206.3173,246.0932,113.944,0,999,9459,0.0019358,0.00048732,0,3858534,0 SPACEBEE-105,1 48896U 21059T   23071.32315862  .00048732  00000-0  19358-2 0  9997,2 48896  97.5806 206.3173 0008263 246.0932 113.9440 15.25127825 94596,2021-059T,48896,6868.539,94.418,496.079,484.728,0,
GENERATED VIA SPACETRACK.ORG API,18 SPCS,48896,SPACEBEE-105,PAYLOAD,U,21059T,2023/3/12 7:45,904768,15.25127825,0.0008263,97.5806,206.3173,246.0932,113.944,0,999,9459,0.0019358,0.00048732,0,3858827,0 SPACEBEE-105,1 48896U 21059T   23071.32315862  .00048732  00000-0  19358-2 0  9997,2 48896  97.5806 206.3173 0008263 246.0932 113.9440 15.25127825 94596,2021-059T,48896,6868.539,94.418,496.079,484.728,0,
GENERATED VIA SPACETRACK.ORG API,18 SPCS,48896,SPACEBEE-105,PAYLOAD,U,21059T,2023/3/12 20:21,944064,15.25176084,0.0008203,97.5803,206.8485,244.0687,115.9705,0,999,9467,0.0017772,0.00044774,0,3859425,0 SPACEBEE-105,1 48896U 21059T   23071.84803176  .00044774  00000-0  17772-2 0  9994,2 48896  97.5803 206.8485 0008203 244.0687 115.9705 15.25176084 94679,2021-059T,48896,6868.394,94.415,495.893,484.625,0,
GENERATED VIA SPACETRACK.ORG API,18 SPCS,48896,SPACEBEE-105,PAYLOAD,U,21059T,2023/3/13 19:58,838464,15.25255578,0.0008115,97.5804,207.8458,239.9402,120.1031,0,999,9482,0.0014892,0.00037558,0,3859473,0 SPACEBEE-105,1 48896U 21059T   23072.83212776  .00037558  00000-0  14892-2 0  9996,2 48896  97.5804 207.8458 0008115 239.9402 120.1031 15.25255578 94824,2021-059T,48896,6868.155,94.41,495.594,484.447,0,
GENERATED VIA SPACETRACK.ORG API,18 SPCS,48896,SPACEBEE-105,PAYLOAD,U,21059T,2023/3/13 21:32,86272,15.25260076,0.0008112,97.5804,207.9121,239.7207,120.3228,0,999,9483,0.001473,0.00037152,0,3859631,0 SPACEBEE-105,1 48896U 21059T   23072.89773248  .00037152  00000-0  14730-2 0  9999,2 48896  97.5804 207.9121 0008112 239.7207 120.3228 15.25260076 94830,2021-059T,48896,6868.142,94.41,495.578,484.435,0,
GENERATED VIA SPACETRACK.ORG API,18 SPCS,48896,SPACEBEE-105,PAYLOAD,U,21059T,2023/3/14 8:34,248960,15.25297705,0.0008123,97.5802,208.3776,238.1678,121.8769,0,999,9490,0.0016245,0.00041048,0,3860373,0 SPACEBEE-105,1 48896U 21059T   23073.35695890  .00041048  00000-0  16245-2 0  9999,2 48896  97.5802 208.3776 0008123 238.1678 121.8769 15.25297705 94909,2021-059T,48896,6868.029,94.408,495.473,484.315,0,
GENERATED VIA SPACETRACK.ORG API,18 SPCS,48896,SPACEBEE-105,PAYLOAD,U,21059T,2023/3/14 19:35,300544,15.25342687,0.0008127,97.5802,208.8428,236.4208,123.6254,0,999,9497,0.0018239,0.0004619,0,3860487,0 SPACEBEE-105,1 48896U 21059T   23073.81617246  .00046190  00000-0  18239-2 0  9997,2 48896  97.5802 208.8428 0008127 236.4208 123.6254 15.25342687 94978,2021-059T,48896,6867.894,94.405,495.34,484.177,0,
GENERATED VIA SPACETRACK.ORG API,18 SPCS,48896,SPACEBEE-105,PAYLOAD,U,21059T,2023/3/14 19:35,300544,15.25342687,0.0008127,97.5802,208.8428,236.4208,123.6254,0,999,9497,0.0018239,0.0004619,0,3860643,0 SPACEBEE-105,1 48896U 21059T   23073.81617246  .00046190  00000-0  18239-2 0  9997,2 48896  97.5802 208.8428 0008127 236.4208 123.6254 15.25342687 94978,2021-059T,48896,6867.894,94.405,495.34,484.177,0,
